[{"OBJECT_NAME":"STARLINK-36511","OBJECT_ID":"2026-008G","EPOCH":"2026-03-09T09:31:29.795232","MEAN_MOTION":15.27593687,"ECCENTRICITY":0.00031759,"INCLINATION":43.0004,"RA_OF_ASC_NODE":207.2129,"ARG_OF_PERICENTER":282.3495,"MEAN_ANOMALY":77.7001,"EPHEMERIS_TYPE":0,"CLASSIFICATION_TYPE":"U","NORAD_CAT_ID":67451,"ELEMENT_SET_NO":999,"REV_AT_EPOCH":952,"BSTAR":0.0010297545,"MEAN_MOTION_DOT":0.00028197,"MEAN_MOTION_DDOT":0},{"OBJECT_NAME":"COSMOS 917 DEB","OBJECT_ID":"1977-047L","EPOCH":"2026-03-09T17:58:52.309920","MEAN_MOTION":2.01986848,"ECCENTRICITY":0.74036961,"INCLINATION":60.3407,"RA_OF_ASC_NODE":243.8674,"ARG_OF_PERICENTER":51.615,"MEAN_ANOMALY":354.1549,"EPHEMERIS_TYPE":0,"CLASSIFICATION_TYPE":"U","NORAD_CAT_ID":27888,"ELEMENT_SET_NO":999,"REV_AT_EPOCH":21619,"BSTAR":0.00076528617,"MEAN_MOTION_DOT":4.17e-6,"MEAN_MOTION_DDOT":0}]
